rup_mag,rup_rake,dist_repi,damping,site_vs30,result_type,5.000,2.000,1.000,0.500,0.300,0.200,0.100,0.050,pga
6.0,-90.0,2.0,5.0,760.0,MEAN,0.013959914955667837,0.08826663539536947,0.23524853033400805,0.609892266982099,0.9805591103995759,1.3990506442057176,1.807956845609867,1.7141429540158974,0.8883767647463712
6.0,-90.0,2.51,5.0,760.0,MEAN,0.013582619956866005,0.08607424553746693,0.23055783575430958,0.5980635589115549,0.9605726726252084,1.36336057675149,1.749833021470125,1.6580585623021113,0.8614562567237538
6.0,-90.0,3.16,5.0,760.0,MEAN,0.013031973201857923,0.082790759331678,0.2232158790208685,0.5790968373501655,0.9295732997506795,1.310335333676638,1.6641768595799789,1.5754615490508992,0.8234208419796771
6.0,-90.0,3.98,5.0,760.0,MEAN,0.012491523608979621,0.07958885042292729,0.216077865530023,0.5605380022739672,0.8991857566039371,1.2593495230277414,1.5825995625417446,1.4959236844386208,0.7868130299337694
6.0,-90.0,5.01,5.0,760.0,MEAN,0.011757327935635513,0.07494914165387773,0.204759015565968,0.5308642604763095,0.8503413500022944,1.1838905232673747,1.4745096439660843,1.3919126307148721,0.7371528503617444
6.0,-90.0,6.31,5.0,760.0,MEAN,0.010431696858764206,0.06614899073587821,0.18140751428877344,0.46947734445503814,0.7494914165387773,1.0411302534504647,1.2879015769911235,1.2155017258696905,0.649253312803047
6.0,-90.0,7.94,5.0,760.0,MEAN,0.009251885200348744,0.0583277673823375,0.1606053035440237,0.41482055543942126,0.6600623046606129,0.9153992443902863,1.1247469829146548,1.0605048614970454,0.5713469941315331
6.0,-90.0,10.0,5.0,760.0,MEAN,0.00819545920370361,0.05139369713408758,0.1421484400891232,0.3662820637016718,0.5807283832909301,0.8037403190692031,0.9806610820208737,0.9237609173367052,0.5024141781342253
6.0,-90.0,12.59,5.0,760.0,MEAN,0.006906537910499508,0.04250177175692005,0.11604370503688824,0.29663544635527933,0.4700891741828249,0.6550656952170211,0.8022107447497362,0.7520407070712221,0.4160442148949947
6.0,-90.0,15.85,5.0,760.0,MEAN,0.005765475468177206,0.03474173137615802,0.09347738524368669,0.23657416141087936,0.3749496515119842,0.5266834240031,0.6486414830752602,0.6047936859172093,0.3407891583772236
6.0,-90.0,19.95,5.0,760.0,MEAN,0.004803883079339021,0.028337913558656627,0.07512249341008398,0.18834158453702335,0.29847093553863957,0.4227743419006491,0.5234203321215706,0.48538491737749384,0.27858646938556997
6.0,-90.0,25.12,5.0,760.0,MEAN,0.003918769406474178,0.022505136820422877,0.05859289359771176,0.145207588728057,0.23137360872469193,0.33059199624744434,0.4109456338301051,0.3777028852870246,0.2218902479439972
6.0,-90.0,31.62,5.0,760.0,MEAN,0.0031233907603513945,0.01736576710701412,0.04422509215685275,0.1079879469543626,0.17416752917663017,0.25115610325646376,0.3131548490055218,0.28409293693565085,0.17192415350807871
6.0,-90.0,39.81,5.0,760.0,MEAN,0.0024799498299623215,0.013348085227881081,0.03325294570521024,0.08004772271876737,0.1305236752611748,0.19017707372038362,0.23769584924515508,0.21291674526979143,0.13266507930842847
6.0,-90.0,50.12,5.0,760.0,MEAN,0.001962953709982512,0.010237950778298399,0.02502383586647836,0.05939846940596432,0.09797433374291935,0.1437799860298879,0.17977596834800877,0.15866784273936563,0.10185945251436526
6.0,-90.0,63.1,5.0,760.0,MEAN,0.0015703629679860096,0.008056777798738611,0.01977229736964203,0.0462645245828086,0.0768866024585358,0.11135301045718977,0.13674394416034016,0.11696144962856837,0.07788592434725415
6.0,-90.0,79.43,5.0,760.0,MEAN,0.0012460932122590283,0.006290629317860839,0.01549968643726451,0.03576144758913594,0.05986753886393417,0.08558478175523752,0.10319528075336634,0.08551340162032907,0.05910275170420072
6.0,-90.0,100.0,5.0,760.0,MEAN,0.0009795393941865978,0.004864046335904718,0.012032651313139554,0.027369183156327595,0.04616255296151082,0.06514966884715984,0.07711094002539094,0.06193756277627937,0.04440864107518877
6.0,-90.0,125.89,5.0,760.0,MEAN,0.0008017008866432472,0.0040370564871796185,0.010115584832741048,0.022515333982552656,0.03719924744943482,0.05055752983944568,0.05680839022500039,0.04357247378054687,0.032620721653163924
6.0,-90.0,158.49,5.0,760.0,MEAN,0.0006543518938679367,0.0033823986784477884,0.008607424553746693,0.018711792508144986,0.029928670850902197,0.03882059622806973,0.04084983149189581,0.029755319094695948,0.02331071262867544
6.0,-90.0,199.53,5.0,760.0,MEAN,0.0005341273523578389,0.002832771639652685,0.007324621557820459,0.015540475085783627,0.024085696950538665,0.029806304905344843,0.02937802409589411,0.020312746962520334,0.01666216292005935
6.0,-90.0,251.19,5.0,760.0,MEAN,0.00043052418511928134,0.0023514655871271026,0.006116257845441614,0.012562903743888076,0.01865060953536631,0.0219544900654148,0.02019038101696298,0.013317493741491744,0.011441215909612355
6.0,-90.0,316.23,5.0,760.0,MEAN,0.00033844381108737436,0.001917066480398505,0.004925229308683394,0.009608785874891019,0.013399071038529978,0.01491844819586709,0.012715861175834767,0.008058817231164566,0.0072552808553379596
6.0,-90.0,398.11,5.0,760.0,MEAN,0.0002661459315872393,0.0015622052382821862,0.003965676352271163,0.007352153895570863,0.00963223934778951,0.010138018589426563,0.008005791988089714,0.0048783223628864085,0.004602998985382368
6.0,-90.0,501.19,5.0,760.0,MEAN,0.00020924576690307088,0.0012736255500094325,0.0031937511790468714,0.005624754630786252,0.006921833653694177,0.006889202734878884,0.0050414769569628775,0.0029520784365711025,0.0029204672339687866
6.0,-90.0,630.96,5.0,760.0,MEAN,0.00015703629679860096,0.0010207359291909061,0.0026420847078258126,0.004738621241708433,0.005858269643558198,0.0058174809950390805,0.004196132216404175,0.0024075499788408887,0.002385116222155374
6.0,-90.0,794.33,5.0,760.0,MEAN,0.00011757327935635513,0.0008169966298379162,0.002188310993050634,0.004007484717003258,0.004992530578739936,0.004955820795072732,0.0035333166779685215,0.0019874268990939825,0.0019680522910474015
6.25,-90.0,1.0,5.0,760.0,MEAN,0.0236268246546986,0.13225719282323728,0.32355595437789664,0.7762079813187991,1.2073439961658672,1.6866106162654935,2.1250885878460024,1.990486047732916,1.0339922399596193
6.25,-90.0,1.26,5.0,760.0,MEAN,0.02358603600617948,0.1320532495806417,0.3233520111353011,0.7763099529400967,1.2073439961658672,1.6845711838395374,2.119990006781113,1.9853874666680265,1.0299133751077076
6.25,-90.0,1.58,5.0,760.0,MEAN,0.023535050195530583,0.13184930633804615,0.32314806789270545,0.7762079813187991,1.206324279952889,1.6815120352006037,2.1138717095032455,1.9802888856031367,1.0258345102557958
6.25,-90.0,2.0,5.0,760.0,MEAN,0.023484064384881688,0.13154339147415275,0.32284215302881214,0.7760040380762034,1.2053045637399111,1.6794726027746478,2.1077534122253776,1.9741705883252691,1.0207359291909062
6.25,-90.0,2.51,5.0,760.0,MEAN,0.023106769386079855,0.12980987391209026,0.3195790611472827,0.7687640529640601,1.1930679691841761,1.6570388460891334,2.071043628558172,1.9384805208710416,1.0014632927656233
6.25,-90.0,3.16,5.0,760.0,MEAN,0.022556122631071776,0.12705664013704987,0.31458245170369087,0.7572412597574095,1.1736933611375955,1.6223684948478838,2.01801838548332,1.8864749940091674,0.9731151820448369
6.25,-90.0,3.98,5.0,760.0,MEAN,0.02200547587606369,0.12430340636200947,0.30958584226009905,0.7456164949294612,1.1543187530910148,1.5876981436066344,1.9639734261954898,1.834469467147293,0.9451749578092417
6.25,-90.0,5.01,5.0,760.0,MEAN,0.021006153987345323,0.11889891043322644,0.2975531909469595,0.7166565544808879,1.1074118072940302,1.5173377249111573,1.8671003859625868,1.7416752917663014,0.8989818133613416
6.25,-90.0,6.31,5.0,760.0,MEAN,0.018732186832404542,0.10574457128581116,0.2658400167233459,0.6389541790519698,0.9848419184940831,1.3450056849178873,1.6448022515333982,1.5336531843188042,0.8009870852941626
6.25,-90.0,7.94,5.0,760.0,MEAN,0.016682557244318906,0.09404842632295433,0.2372879627599639,0.5693075617055773,0.8747125674924668,1.1910285367582203,1.4479970224286582,1.3490845497697992,0.713189519356763
6.25,-90.0,10.0,5.0,760.0,MEAN,0.014847068060958635,0.08354534932928168,0.21169308581421792,0.5066969862287325,0.7762079813187991,1.0533668480062,1.2736255500094324,1.1859299556933305,0.6343654560935692
6.25,-90.0,12.59,5.0,760.0,MEAN,0.012409946311941387,0.06875946424110171,0.17243401161456767,0.40992591761712716,0.6278392723305105,0.8572754202505444,1.037051388598553,0.961796332080782,0.5249499064410375
6.25,-90.0,15.85,5.0,760.0,MEAN,0.01024814794042818,0.0558192654984118,0.13827351847980707,0.32600327328904366,0.499558972737887,0.6872887275471237,0.8321904014112873,0.7689679962066558,0.42879066755721884
6.25,-90.0,19.95,5.0,760.0,MEAN,0.008452427689374048,0.04522441404557112,0.11063920910810522,0.2588039748537982,0.3966696068484141,0.549830982037699,0.6666904600449695,0.6135632453488195,0.34955871780883385
6.25,-90.0,25.12,5.0,760.0,MEAN,0.0068392366404429646,0.035751250427006165,0.0859824710782989,0.1991505763945894,0.30673063686376084,0.4290965824211122,0.5206670983465302,0.4759015565967991,0.27858646938556997
6.25,-90.0,31.62,5.0,760.0,MEAN,0.005419791671977689,0.027501746264014724,0.06476217668622822,0.1480627941243952,0.2302519208904162,0.3256973584251503,0.395242004150245,0.35771644751265724,0.21658772363651196
6.25,-90.0,39.81,5.0,760.0,MEAN,0.0042777095134424094,0.02107753412225378,0.048589477548398284,0.10961949289512729,0.1721280967506743,0.24636343705546745,0.2988788220238308,0.26787944914930173,0.1677433170348692
6.25,-90.0,50.12,5.0,760.0,MEAN,0.003367102935253119,0.016131910489310827,0.03649564326248005,0.08120000203943242,0.12879015769911234,0.18589426562587633,0.22525531144682437,0.19955846287978055,0.1293000158056013
6.25,-90.0,63.1,5.0,760.0,MEAN,0.0026808339239189735,0.01265467820305609,0.028694814233198904,0.06287570169221905,0.1002584980599899,0.1432701279233989,0.170802465673803,0.14734899277531063,0.09910621873932485
6.25,-90.0,79.43,5.0,760.0,MEAN,0.0021189702905681346,0.00984943890115381,0.022392968036995305,0.04831415417089424,0.07745764353780342,0.10951752127382951,0.12858621445651675,0.1078859753330648,0.07537742246332846
6.25,-90.0,100.0,5.0,760.0,MEAN,0.0016580585623021114,0.007591787205620677,0.01730458413423544,0.03676076947785431,0.05926590629827719,0.08290292811510556,0.09582273253353592,0.07829381083244534,0.056777798738611045
6.25,-90.0,125.89,5.0,760.0,MEAN,0.0013552028470476666,0.006294708182712752,0.014510561710675919,0.03015300841775734,0.04751877552477146,0.0641299526341819,0.07082948815344689,0.055503153472388635,0.04190013919126308
6.25,-90.0,158.49,5.0,760.0,MEAN,0.001106392091081052,0.005270913104882911,0.012338566177032932,0.024993244380089024,0.0380965977168554,0.049119729979146806,0.051230542540011116,0.03826994947306165,0.030112219769238224
6.25,-90.0,199.53,5.0,760.0,MEAN,0.0009037744795623378,0.004414351485981452,0.010482682669413101,0.020710436285581724,0.030540500578688953,0.037617331096755774,0.03705648717961792,0.026390255591868785,0.021638378039391636
6.25,-90.0,251.19,5.0,760.0,MEAN,0.0007291990639005164,0.0036658797856556524,0.00875630312084147,0.016723345892838023,0.02360643033043904,0.02768529518235075,0.025645862756394893,0.017477935890441693,0.01493884252012665
6.25,-90.0,316.23,5.0,760.0,MEAN,0.0005747120576343604,0.002994906517516175,0.007067653072150021,0.012817832797132559,0.016988472108212284,0.018854552777961893,0.016295065083387295,0.010707020236268247,0.009554740915603188
6.25,-90.0,398.11,5.0,760.0,MEAN,0.00045295794180479575,0.0024473189111470276,0.005705312211611508,0.009820886847190428,0.01222639739360536,0.012838227121392118,0.010360316723855751,0.006553716100809144,0.006109119831950768
6.25,-90.0,501.19,5.0,760.0,MEAN,0.0003570026461635727,0.0019996634936497175,0.004605038417808324,0.007526525367990089,0.008804229782851433,0.008743046810072756,0.006582268154772527,0.004013603014281126,0.003906532811918443
6.25,-90.0,630.96,5.0,760.0,MEAN,0.0002729780302141914,0.0016284867921257514,0.0038596258661214586,0.006406876966140324,0.00751632820586031,0.0074449480709518545,0.005532980171618239,0.003309998827326355,0.003224342665436209
6.25,-90.0,794.33,5.0,760.0,MEAN,0.00020853196555398632,0.0013256310768713067,0.003240658124843856,0.005476895779904453,0.00646296135785411,0.006399738952649478,0.0047059903228931395,0.0027634309371701855,0.002690011369835775
6.5,-90.0,1.0,5.0,760.0,MEAN,0.03958538338780317,0.1966012858621446,0.44408641075188776,0.9896345846950794,1.4836870898828856,2.021077534122254,2.4626146543416967,2.2780460197926917,1.1757327935635513
6.5,-90.0,1.26,5.0,760.0,MEAN,0.03955479190141384,0.19639734261954897,0.44388246750929217,0.9890227549672926,1.4836870898828856,2.019038101696298,2.461594938128719,2.276006587366736,1.1757327935635513
6.5,-90.0,1.58,5.0,760.0,MEAN,0.039524200415024496,0.1962953709982512,0.443474581024101,0.9883089536182081,1.4826673736699076,2.01801838548332,2.459555505702763,2.274986871153758,1.1747130773505734
6.5,-90.0,2.0,5.0,760.0,MEAN,0.03949360892863516,0.1960914277556556,0.44306669453890984,0.9873912090265279,1.4806279412439518,2.015978953057364,2.4575160732768073,2.271927722514824,1.1736933611375955
6.5,-90.0,2.51,5.0,760.0,MEAN,0.03931006001029913,0.19558156964916665,0.44306669453890984,0.9883089536182081,1.4806279412439518,2.01291980441843,2.4524174922119175,2.2668291414499344,1.164515915220794
6.5,-90.0,3.16,5.0,760.0,MEAN,0.039034736632795095,0.19496973992137986,0.4433726094028032,0.9901444428015683,1.4816476574569297,2.0088409395665185,2.445279478721072,2.258671411746111,1.1502398882391032
6.5,-90.0,3.98,5.0,760.0,MEAN,0.03874921609316127,0.19415396695099754,0.443474581024101,0.9916740171210352,1.4816476574569297,2.002722642288651,2.4371217490172485,2.2494939658293096,1.1349441450444342
6.5,-90.0,5.01,5.0,760.0,MEAN,0.037525556637587755,0.18854552777961894,0.4323596743026416,0.9675067428734583,1.4439181575767464,1.9456185343618873,2.36268246546986,2.180153263346811,1.096194928951273
6.5,-90.0,6.31,5.0,760.0,MEAN,0.03362004354188229,0.1691709197330383,0.3895315933575686,0.8698179296701728,1.294019874268991,1.7365767107014118,2.0995956825215543,1.9354213722321079,0.9883089536182081
6.5,-90.0,7.94,5.0,760.0,MEAN,0.030091825444978664,0.15163180086981792,0.35057843402181177,0.7813065623836887,1.1594173341559044,1.5489489275134731,1.8640412373236528,1.7172021026548312,0.8901102823084336
6.5,-90.0,10.0,5.0,760.0,MEAN,0.026910310860487528,0.13582619956866004,0.3152962530527754,0.7010548964223257,1.037051388598553,1.3806957523721148,1.6539796974501997,1.5224363059760468,0.8009870852941626
6.5,-90.0,12.59,5.0,760.0,MEAN,0.022301193577827293,0.11125103883589196,0.2561527127000556,0.5664523563092392,0.8384106703104527,1.121687834275721,1.3399071038529977,1.2297777528513816,0.6624076519504623
6.5,-90.0,15.85,5.0,760.0,MEAN,0.018232525888045355,0.08970443525566835,0.20445310070207462,0.449388935059373,0.665466800589396,0.8966364660714923,1.067642874987891,0.9778058766245354,0.5395318482866219
6.5,-90.0,19.95,5.0,760.0,MEAN,0.014867462385218194,0.07218571071670755,0.16284867921257515,0.3557789867079992,0.5271932821095889,0.7152289517827188,0.8493216337893165,0.7756981232123101,0.43868191482310476
6.5,-90.0,25.12,5.0,760.0,MEAN,0.01193067969184176,0.05678799590074082,0.12613889554536972,0.27318197345678696,0.4065608541143,0.5569689955285445,0.6595524465541239,0.5995931332310218,0.3497626610514294
6.5,-90.0,31.62,5.0,760.0,MEAN,0.009402803199869476,0.04356227661841709,0.09484380496907711,0.20282155476130995,0.3043852895739116,0.42236645541545786,0.4988451713888025,0.4504086512723509,0.27297803021419137
6.5,-90.0,39.81,5.0,760.0,MEAN,0.007378666517108289,0.03329373435372936,0.07102323423391271,0.15000025492905325,0.22698882900888684,0.3190692030407937,0.3758673961036644,0.3370162083892053,0.21220294392070688
6.5,-90.0,50.12,5.0,760.0,MEAN,0.005775672630306985,0.025411328027409974,0.0532087919931883,0.1109451239719986,0.1691709197330383,0.2404490830201955,0.28215547613099273,0.25095216001386816,0.16417431028944646
6.5,-90.0,63.1,5.0,760.0,MEAN,0.004578525796270898,0.01987426899093982,0.04164521013801859,0.08545221864755038,0.1307276185037704,0.18426271968511163,0.2134266033762804,0.18558835076198293,0.12613889554536972
6.5,-90.0,79.43,5.0,760.0,MEAN,0.0036016376642380426,0.015418109140226274,0.03233520111353011,0.06528223195484696,0.100207512249341,0.14010900766316736,0.16019741705883253,0.1362340860538512,0.09614904172168887
6.5,-90.0,100.0,5.0,760.0,MEAN,0.0028062590181152586,0.011849102394803525,0.02487087843453167,0.04939505335665084,0.07607082948815344,0.10554062804321558,0.11910285367582202,0.09897365563163772,0.07259359720189872
6.5,-90.0,125.89,5.0,760.0,MEAN,0.002292322046774383,0.00981476854991256,0.020812407906879517,0.04037056487179618,0.06070370615857607,0.08134276230924933,0.08830742404388858,0.07068672788362998,0.05381042455884528
6.5,-90.0,158.49,5.0,760.0,MEAN,0.0018721989670274764,0.008215853527963168,0.017671681970907495,0.033385508812897376,0.04847730876497071,0.062151703181004735,0.06424212141760949,0.04923189876257438,0.038881779200848406
6.5,-90.0,199.53,5.0,760.0,MEAN,0.0015295743194668925,0.006877985856536126,0.015010222655035104,0.027603717885312518,0.03871862460677194,0.04748818403838212,0.04673359404077845,0.03429305624244773,0.028093181667541926
6.5,-90.0,251.19,5.0,760.0,MEAN,0.0012348763339162711,0.00571448965752831,0.012532312257498738,0.022260404929308173,0.02986748787812352,0.034915083132364265,0.03257993300464481,0.022953811954133166,0.019527565478527326
6.5,-90.0,316.23,5.0,760.0,MEAN,0.0009756644725772818,0.004680497417568691,0.010143117170491451,0.01709044372951008,0.021536406418093845,0.023830767897294186,0.020893985203917748,0.01421484400891232,0.012583298068147635
6.5,-90.0,398.11,5.0,760.0,MEAN,0.000770803485390016,0.00383413296079701,0.008206676082046368,0.013113550498896157,0.015530277923653848,0.016254276434868178,0.013399071038529978,0.008806269215277388,0.008108783325600485
6.5,-90.0,501.19,5.0,760.0,MEAN,0.0006089745223904188,0.003139706219759041,0.006639372262699291,0.01007071731937002,0.011196484018497653,0.01109451239719986,0.00859416824297798,0.005455481739431916,0.005225025875298904
6.5,-90.0,630.96,5.0,760.0,MEAN,0.00047467789714122563,0.002598236910667761,0.005639030657767944,0.0086624892292475,0.009643456226132269,0.00952924801027874,0.007296069503857077,0.0045499737423075155,0.004359286810480644
6.5,-90.0,794.33,5.0,760.0,MEAN,0.0003697490988257968,0.0021505814931704506,0.004799804214487108,0.007485736719470971,0.008365751811270925,0.008262760473760152,0.006266156128749369,0.003843310406713812,0.0036760769477854316
6.75,-90.0,1.0,5.0,760.0,MEAN,0.06067311467218673,0.26940902346876866,0.5747120576343604,1.222639739360536,1.7845033727113744,2.3688007627477274,2.8348110720786406,2.5645862756394897,1.2960593066949468
6.75,-90.0,1.26,5.0,760.0,MEAN,0.06063232602366762,0.2693070518474709,0.574406142770467,1.222639739360536,1.7834836564983965,2.3667613303217716,2.8327716396526847,2.562546843213534,1.295039590481969
6.75,-90.0,1.58,5.0,760.0,MEAN,0.0605915373751485,0.26910310860487524,0.5739982562852758,1.221620023147558,1.7814442240724406,2.3657416141087935,2.830732207226729,2.560507410787578,1.294019874268991
6.75,-90.0,2.0,5.0,760.0,MEAN,0.06053035440236982,0.26879719374098193,0.5733864265574891,1.22060030693458,1.7804245078594627,2.36268246546986,2.827673058587795,2.558467978361622,1.293000158056013
6.75,-90.0,2.51,5.0,760.0,MEAN,0.060346805484033796,0.2683893072557907,0.5732844549361913,1.22060030693458,1.7794047916464848,2.359623316830926,2.8235941937358833,2.5533693972967324,1.2858621445651675
6.75,-90.0,3.16,5.0,760.0,MEAN,0.06007148210652975,0.2676755059067062,0.5731824833148935,1.221620023147558,1.7783850754335069,2.3555444519790143,2.8174758964580158,2.547251100018865,1.2756649824353883
6.75,-90.0,3.98,5.0,760.0,MEAN,0.05977576440476615,0.2668597329363238,0.5728765684510001,1.221620023147558,1.777365359220529,2.3504458709141245,2.81033788296717,2.5401130865280193,1.265467820305609
