rup_mag,rup_rake,dist_repi,damping,site_vs30,result_type,5.000,2.000,1.000,0.500,0.300,0.200,0.100,0.050,pga
5.25,-90.0,1.26,5.0,760.0,MEAN,0.0022219616280789055,0.020995956825215545,0.07322582125394503,0.24401808976561826,0.457240749899303,0.7500012746452662,1.1859299556933305,1.1349441450444342,0.6153987345321797
5.25,-90.0,1.58,5.0,760.0,MEAN,0.0021923898579025458,0.020669647637062607,0.07232847098652447,0.241672742475769,0.4535697715325825,0.7405179138645716,1.1573779017299486,1.1074118072940302,0.6028562251125512
5.25,-90.0,2.0,5.0,760.0,MEAN,0.002162818087726186,0.02034333844890967,0.07143112071910387,0.23932739518591975,0.4500007647871598,0.7310345530838768,1.1288258477665667,1.080899185756604,0.5905176589355183
5.25,-90.0,2.51,5.0,760.0,MEAN,0.0020598267502154152,0.019252242101023286,0.06808645154053626,0.2292322046774383,0.4319517878174504,0.6959563153574361,1.0492879831542883,1.0062559589666196,0.5550315347238863
5.25,-90.0,3.16,5.0,760.0,MEAN,0.001918086196611483,0.01779404791646485,0.06347733425787604,0.2150581493170451,0.40635691087170445,0.6478257101048778,0.9476222767203887,0.909586861976312,0.5086344470333907
5.25,-90.0,3.98,5.0,760.0,MEAN,0.0017865428051373304,0.016427628191074423,0.059174131839109176,0.2015978953057364,0.3820876650028297,0.6027542534912534,0.855439931067184,0.8218912676602101,0.4659083377096154
5.25,-90.0,5.01,5.0,760.0,MEAN,0.0016417431028944646,0.014969434006515988,0.0543406769895938,0.1862001804897697,0.35333166779685216,0.552278300948846,0.7625437840648948,0.7326660990246414,0.4200211081256086
5.25,-90.0,6.31,5.0,760.0,MEAN,0.0014500364548546139,0.013062564688247262,0.04766153579458837,0.1636644521829575,0.310095700366588,0.4823257687385601,0.6537400641401498,0.6263096980110436,0.3603677096663998
5.25,-90.0,7.94,5.0,760.0,MEAN,0.0012797438472872999,0.011400427261093238,0.041777773245705724,0.1437799860298879,0.2720602856225113,0.420836881095991,0.5600281441674783,0.5348411537069234,0.30897401253231227
5.25,-90.0,10.0,5.0,760.0,MEAN,0.0011278061315535888,0.009932035914405021,0.036577220559518286,0.12624086716666752,0.23830767897294183,0.3668938934294586,0.4793685917209241,0.4564249769289207,0.2646163572677724
5.25,-90.0,12.59,5.0,760.0,MEAN,0.0009453789010518374,0.008169966298379162,0.02974512193256617,0.10181866386584613,0.19129876155465933,0.29551375852100364,0.3866763879612304,0.3656702339738851,0.21250885878460027
5.25,-90.0,15.85,5.0,760.0,MEAN,0.0007846716258865158,0.006648549708616092,0.02386135938368352,0.08090428433766883,0.15112194276332896,0.2346367006062213,0.3084641544258233,0.2894974328644338,0.16866106162654934
5.25,-90.0,19.95,5.0,760.0,MEAN,0.0006499671141521314,0.0053993973477181306,0.019099284669076597,0.06416054412057125,0.11910285367582202,0.18599623724717412,0.24564963570638293,0.2288243181922471,0.13368479552140639
5.25,-90.0,25.12,5.0,760.0,MEAN,0.0005241341334706552,0.004247118027053071,0.01478588508817996,0.04904834984423835,0.09090770038698232,0.1423523833317188,0.18864749940091674,0.17386161431273678,0.102379507782984
5.25,-90.0,31.62,5.0,760.0,MEAN,0.00041023183248102053,0.003225362381649187,0.011023132262291405,0.03602657380451021,0.06690358073348188,0.10482682669413103,0.13929323469278498,0.12644481040926311,0.07558136570592405
5.25,-90.0,39.81,5.0,760.0,MEAN,0.00031988497601117606,0.002440180897656182,0.008186281757786809,0.026359664105479446,0.04904834984423835,0.07695798259344425,0.10248147940428179,0.09158071308754774,0.05558473076942687
5.25,-90.0,50.12,5.0,760.0,MEAN,0.0002487087843453167,0.0018416074806381385,0.00608362692662632,0.01930322791167218,0.03601637664238043,0.05644129238832833,0.07510209908582442,0.06597563897967196,0.04071726838420867
5.25,-90.0,63.1,5.0,760.0,MEAN,0.00019517368316397546,0.0014163858198263425,0.0047202663498748295,0.014826673736699077,0.027858646938557,0.04279748945868365,0.05563571658007577,0.04698852309402293,0.029949065175161754
5.25,-90.0,79.43,5.0,760.0,MEAN,0.00015203968735500912,0.001079879469543626,0.0036342685830533365,0.011298455639795445,0.021383448986147156,0.03220263800584297,0.040900817302544704,0.033201959894561345,0.021862715606246783
5.25,-90.0,100.0,5.0,760.0,MEAN,0.00011726736449246175,0.0008161808568675338,0.002771588666874009,0.00852992612156037,0.016254276434868178,0.023993922491370653,0.029775713418955504,0.023239332493766984,0.01580560130115789
5.25,-90.0,125.89,5.0,760.0,MEAN,9.433394686258814e-05,0.0006581248438559549,0.002276006587366736,0.006885123870026971,0.012950395904819688,0.01844666629277072,0.021556800742353405,0.01605033319227259,0.011441215909612355
5.25,-90.0,158.49,5.0,760.0,MEAN,7.57037316514814e-05,0.0005342293239791367,0.001889534142648101,0.0056013011578877605,0.010319528075336634,0.014102675225484747,0.015295743194668924,0.010839583343955378,0.008133256514711956
5.25,-90.0,199.53,5.0,760.0,MEAN,6.075469196922497e-05,0.0004337872770008107,0.0015683235355600537,0.004557111755798361,0.008224011257666992,0.010778400371176703,0.010849780506085158,0.0073134046794777014,0.005783830360010809
5.25,-90.0,251.19,5.0,760.0,MEAN,4.811021092829866e-05,0.00034915083132364263,0.0012756649824353882,0.003598578515599109,0.006288589885434883,0.007882406326319386,0.00733889758480215,0.00473454237685652,0.0039442623117986264
5.25,-90.0,316.23,5.0,760.0,MEAN,3.711767015239659e-05,0.0002763430937170186,0.000997792314398903,0.002682873356344929,0.004437804958879944,0.00529130742914247,0.004527539985622002,0.002825633626161839,0.0024799498299623215
5.25,-90.0,398.11,5.0,760.0,MEAN,2.8643828422550007e-05,0.00021883109930506342,0.000780592761034604,0.0020006832098626954,0.0031325682062681957,0.0035516715698021245,0.0027930027073465456,0.0016866106162654933,0.0015591460896432522
5.25,-90.0,501.19,5.0,760.0,MEAN,2.2107447497361487e-05,0.00017314781296365222,0.0006106060683311835,0.0014918448195867092,0.0022107447497361488,0.0023840965059423965,0.0017233203999326987,0.0010067658170731086,0.0009806610820208737
5.25,-90.0,630.96,5.0,760.0,MEAN,1.5305940356798705e-05,0.00012909607256300572,0.00047579958497550136,0.0011971468340360877,0.0017957202510541317,0.0019374608046580637,0.001379676036159137,0.0007896682353301076,0.0007701916556622292
5.25,-90.0,794.33,5.0,760.0,MEAN,1.0543865642191778e-05,9.602667577613151e-05,0.00037066684341747694,0.0009640397077493334,0.001467371630475239,0.0015876981436066342,0.0011165892532108315,0.000626513641253639,0.0006105040967098856
5.5,-90.0,1.0,5.0,760.0,MEAN,0.004369483972610423,0.03551671569802124,0.1110470955932964,0.33844381108737437,0.6032641115977424,0.9407901780934367,1.4010900766316734,1.3439859687049094,0.7202255612263107
5.5,-90.0,1.26,5.0,760.0,MEAN,0.0043409319186470405,0.035302575293295876,0.1108431523507008,0.33844381108737437,0.6032641115977424,0.937629057833205,1.3827351847980707,1.3297099417232185,0.7115579734159984
5.5,-90.0,1.58,5.0,760.0,MEAN,0.00431136014847068,0.03508843488857051,0.11063920910810522,0.33844381108737437,0.6032641115977424,0.9343659659516756,1.3654000091774459,1.3154339147415275,0.7027884139843882
5.5,-90.0,2.0,5.0,760.0,MEAN,0.004280768662081344,0.034864097321715366,0.11033329424421184,0.3383418394660766,0.6030601683551468,0.9310009024488485,1.3470451173438434,1.3011578877598364,0.694018854552778
5.5,-90.0,2.51,5.0,760.0,MEAN,0.004091101446467448,0.03325294570521024,0.10605048614970454,0.3261052449103415,0.5810342981548234,0.8901102823084336,1.263428387879653,1.221620023147558,0.6572070992642748
5.5,-90.0,3.16,5.0,760.0,MEAN,0.003817817501389364,0.030938189901750342,0.09958548535942448,0.30734246659154757,0.5471797198839563,0.8296411108788425,1.1471807396001694,1.110470955932964,0.6063232602366762
5.5,-90.0,3.98,5.0,760.0,MEAN,0.0035628884481448816,0.02876619436810736,0.09348758240581648,0.2894974328644338,0.5150586591751516,0.7730468610585675,1.0421499696634426,1.0099269373333402,0.5592123711970959
5.5,-90.0,5.01,5.0,760.0,MEAN,0.0032834862057889293,0.026380058429739006,0.08645154053626876,0.2683893072557907,0.47692127280977703,0.7096205126113403,0.9345699091942713,0.9064257417160805,0.5080226173056038
5.5,-90.0,6.31,5.0,760.0,MEAN,0.002916388369116875,0.02316795235885853,0.07629516705500859,0.23667613303217716,0.41940927839782194,0.6220268899165362,0.8081250987850082,0.7817144488688799,0.44010951752127386
5.5,-90.0,7.94,5.0,760.0,MEAN,0.002587020032325004,0.02033314128677989,0.06728087573228371,0.20853196555398634,0.3686274109915211,0.544834372594107,0.6983016626472852,0.6735225586719217,0.3810679487898518
5.5,-90.0,10.0,5.0,760.0,MEAN,0.0022933417629873607,0.017834836564983966,0.05927610346040697,0.18365088995732487,0.3236579259991944,0.47681930118847926,0.6027542534912534,0.5798106386992501,0.3295722800344664
5.5,-90.0,12.59,5.0,760.0,MEAN,0.0019354213722321079,0.014745096439660843,0.04836513998154314,0.14847068060958635,0.2608434072797541,0.3865744163399326,0.4918091295192548,0.469069457969847,0.2686952221196841
5.5,-90.0,15.85,5.0,760.0,MEAN,0.0016182896299959722,0.012063242799528891,0.03891237068723774,0.11828708070543968,0.20710436285581724,0.30917795577490786,0.39707749333360526,0.37515359475457977,0.21668969525780976
5.5,-90.0,19.95,5.0,760.0,MEAN,0.001350104265982777,0.009845360036301896,0.0312543019277735,0.09401783483656499,0.16407233866814866,0.24677132354065864,0.31998694763247393,0.2993886801303198,0.17437147241922574
5.5,-90.0,25.12,5.0,760.0,MEAN,0.0010982343613772287,0.0077977698806422175,0.02431003451739381,0.0722061050409671,0.12624086716666752,0.19109481831206376,0.24942258569440126,0.230353892511714,0.13613211443255344
5.5,-90.0,31.62,5.0,760.0,MEAN,0.0008695120148062795,0.005974517291837682,0.018263117374434697,0.053392340911524325,0.09404842632295433,0.14316815630210114,0.18752581156664103,0.170292607567314,0.10268542264687738
5.5,-90.0,39.81,5.0,760.0,MEAN,0.0006857591532276568,0.004559151188224317,0.013664197253904239,0.039330454334558694,0.06979957477833919,0.10686625912008688,0.14041492252706073,0.1253231225749874,0.07723330597094828
5.5,-90.0,50.12,5.0,760.0,MEAN,0.0005390219901801329,0.0034731534214028238,0.010237950778298399,0.02901092625922206,0.05187296375418721,0.07963983623357619,0.10472485507283323,0.09172347335736465,0.057807712113718754
5.5,-90.0,63.1,5.0,760.0,MEAN,0.00042797489458683654,0.002701228248178532,0.008020068015071406,0.02247454533403354,0.040513325141613085,0.06106060683311835,0.07846716258865158,0.06618977938439732,0.043195178781745044
5.5,-90.0,79.43,5.0,760.0,MEAN,0.0003371181800105031,0.0020853196555398633,0.006236584358573009,0.017273992647846105,0.03139706219759041,0.04645827066327442,0.058337964544467276,0.0473964095792141,0.03201908908750695
5.5,-90.0,100.0,5.0,760.0,MEAN,0.0002629848113270077,0.001593816440884502,0.004802863363126042,0.013144141985285495,0.024095894112668444,0.03500685759153228,0.04295044689063034,0.03360984637975252,0.023514655871271026
5.5,-90.0,125.89,5.0,760.0,MEAN,0.000213120688512387,0.0013021776039728143,0.0039881101089566775,0.010717217398398026,0.019313425073801963,0.026981690995395984,0.03109114733369703,0.023239332493766984,0.0170292607567314
5.5,-90.0,158.49,5.0,760.0,MEAN,0.0001720261251293765,0.0010717217398398026,0.0033477283272065387,0.008798111485573565,0.015458897788745393,0.02060846466428393,0.0219544900654148,0.015622052382821862,0.012053045637399113
5.5,-90.0,199.53,5.0,760.0,MEAN,0.00013888534820759383,0.0008817486093620146,0.0028093181667541924,0.007226728801374578,0.01236915766342227,0.015734221166249434,0.01549968643726451,0.010503076993672662,0.00852482754049548
5.5,-90.0,251.19,5.0,760.0,MEAN,0.00011063920910810522,0.000719103873392035,0.0023116966548209633,0.005764455751964228,0.009505794537380246,0.011512596044520809,0.010452091183023765,0.006778053667664289,0.005789948657288677
5.5,-90.0,316.23,5.0,760.0,MEAN,8.581931648422244e-05,0.0005762416319538273,0.0018303906022953812,0.004345010783498952,0.006752560762339841,0.0077467840699933215,0.0064476656146594405,0.004042155068244508,0.0036332488668403586
5.5,-90.0,398.11,5.0,760.0,MEAN,6.656707438319916e-05,0.00046182947285770376,0.0014490167386416362,0.0032743087598721275,0.004796745065848174,0.005214828713169125,0.003977912946826898,0.0024095894112668445,0.0022800854522186478
5.5,-90.0,501.19,5.0,760.0,MEAN,5.162823186307251e-05,0.00037005501368969016,0.0011471807396001693,0.0024687329516195644,0.0034068718675592585,0.0035108829212830072,0.0024544569246378735,0.001436780144085901,0.0014306618468080334
5.5,-90.0,630.96,5.0,760.0,MEAN,3.684234677489255e-05,0.00028358307882916185,0.0009143795281773083,0.00201801838548332,0.002811357599180148,0.0028929348962183827,0.0019894663315199383,0.0011410624423223018,0.001139023009896346
5.5,-90.0,794.33,5.0,760.0,MEAN,2.619650951140298e-05,0.00021689363850040534,0.0007293010355218142,0.0016560191298761557,0.0023331106952934996,0.002403471113988977,0.0016315459407646854,0.0009175406484375399,0.0009152972727689884
5.75,-90.0,1.0,5.0,760.0,MEAN,0.007851814839930048,0.056227151983602966,0.1618289629995972,0.4538756863964759,0.7699877124196337,1.1502398882391032,1.6029938868013032,1.5295743194668925,0.8090428433766883
5.75,-90.0,1.26,5.0,760.0,MEAN,0.007813065623836886,0.055992617254618036,0.16162501975700164,0.4540796296390715,0.7697837691770381,1.1482004558131473,1.5887178598196123,1.5173377249111573,0.8011910285367583
5.75,-90.0,1.58,5.0,760.0,MEAN,0.007772276975317769,0.05573768820137356,0.16131910489310824,0.45428357288166704,0.7694778543131447,1.1441215909612354,1.5754615490508992,1.505101130355422,0.7932372420755304
5.75,-90.0,2.0,5.0,760.0,MEAN,0.007730468610585675,0.0554725619859993,0.16111516165051268,0.45428357288166704,0.7689679962066558,1.1410624423223017,1.5611855220692081,1.492864535799687,0.7852834556143026
5.75,-90.0,2.51,5.0,760.0,MEAN,0.007455145233081634,0.05350450969495189,0.15632249544951643,0.44163909184074074,0.7470440976276302,1.1012935100161625,1.4867462385218195,1.4225041171042099,0.7524485935564132
5.75,-90.0,3.16,5.0,760.0,MEAN,0.007054396761381308,0.05060851565009458,0.1490825103373731,0.4218565973089689,0.713189519356763,1.0431696858764206,1.3817154685850928,1.322571928232373,0.7065613639724064
5.75,-90.0,3.98,5.0,760.0,MEAN,0.006672003181514585,0.047845084712924396,0.1421484400891232,0.4027879041262817,0.6805586005414693,0.9865754360561456,1.2838227121392116,1.2287580366384037,0.6633253965421424
5.75,-90.0,5.01,5.0,760.0,MEAN,0.0062141506018874955,0.044459626885837676,0.13307296579361963,0.3773969704231313,0.6368127750047162,0.9167248754671575,1.1736933611375955,1.1237272667016769,0.6119316994080548
5.75,-90.0,6.31,5.0,760.0,MEAN,0.0055156449959976135,0.03914690541622267,0.11767525097765293,0.33334523002248473,0.5606399738952649,0.8049639785247765,1.0207359291909062,0.9746447563643038,0.53453523884303
5.75,-90.0,7.94,5.0,760.0,MEAN,0.0048925983898681,0.03444601367439442,0.10401105372374868,0.2941881274441323,0.4932367322174239,0.7062554491085131,0.8861333890778197,0.8449368540735114,0.4666221390587
5.75,-90.0,10.0,5.0,760.0,MEAN,0.0043358333375821505,0.03027537436331469,0.09178465633014334,0.25931383296028715,0.4335833337582151,0.6190697128989003,0.7688660245853579,0.7318503260542591,0.4069687405994912
5.75,-90.0,12.59,5.0,760.0,MEAN,0.003655682623525873,0.02503403302860814,0.07492874732961817,0.20985759663085765,0.3501705475366205,0.5032299511046076,0.6281451871944038,0.5939846940596433,0.33436494623546265
5.75,-90.0,15.85,5.0,760.0,MEAN,0.0030540500578688954,0.02046570439446702,0.060316213997644454,0.16723345892838024,0.2786884410068678,0.40350170547536623,0.5075127591991149,0.4763094430819903,0.2717543707586179
5.75,-90.0,19.95,5.0,760.0,MEAN,0.0025462313838058867,0.016702951568578463,0.04845691444071115,0.13307296579361963,0.22127841821621044,0.32294412465010985,0.40921211626804266,0.3812718920324474,0.2203606736245303
5.75,-90.0,25.12,5.0,760.0,MEAN,0.002075122493410084,0.01324611360658329,0.03773969704231312,0.102379507782984,0.17090443729510077,0.2513600464990593,0.32019089087506947,0.2950039004145147,0.17375964269143898
5.75,-90.0,31.62,5.0,760.0,MEAN,0.0016478614001723322,0.010184925535223547,0.02841949085569486,0.07593826638046632,0.12797438472873,0.18966721561389466,0.24228457220355576,0.2199527871393391,0.13286902255102406
5.75,-90.0,39.81,5.0,760.0,MEAN,0.0013042170363987702,0.007799809313068173,0.0213120688512387,0.0561149832001754,0.09546583185899365,0.14255632657431438,0.18273314536564472,0.1633585373190641,0.10120683413805938
5.75,-90.0,50.12,5.0,760.0,MEAN,0.0010288936588947295,0.0059633004134949244,0.016009544543753473,0.04151264703033146,0.07128836044928696,0.10696823074138469,0.13725380226682915,0.12063242799528891,0.07673364502658911
5.75,-90.0,63.1,5.0,760.0,MEAN,0.0008197498636129565,0.004665201674374022,0.012593495230277413,0.03224342665436209,0.05580906833628201,0.08245425298139528,0.1036031672385575,0.08797091769360586,0.05800145819418456
5.75,-90.0,79.43,5.0,760.0,MEAN,0.0006481316249687713,0.0036220319884976014,0.009833123441746163,0.024850484110272113,0.04335833337582151,0.06305925061055509,0.07759020664549057,0.06367108033834185,0.043501093645638415
5.75,-90.0,100.0,5.0,760.0,MEAN,0.0005075127591991149,0.0027838252614297444,0.0076030040839634334,0.01896672156138947,0.033354917326508034,0.04775331025375638,0.05755278306047427,0.04563230053076229,0.032314806789270546
5.75,-90.0,125.89,5.0,760.0,MEAN,0.00041329098111995435,0.002292322046774383,0.006351812290639515,0.015530277923653848,0.026798142077059956,0.03693412123406056,0.042022505136820425,0.031825343007041144,0.02356564168191992
5.75,-90.0,158.49,5.0,760.0,MEAN,0.0003355886056910362,0.0019038101696297921,0.005367786145115815,0.012828029959262337,0.021505814931704507,0.02827673058587795,0.029949065175161754,0.021556800742353405,0.016764134541357143
5.75,-90.0,199.53,5.0,760.0,MEAN,0.0002723662004864047,0.001580560130115789,0.004536717431538803,0.010594851452840675,0.017263795485716327,0.021648575201521417,0.02133246317549826,0.014612533331973713,0.01192048252971198
5.75,-90.0,251.19,5.0,760.0,MEAN,0.00021821926957727664,0.0013001381715468585,0.0037607133934625995,0.008508512081087834,0.013317493741491744,0.0158973757603259,0.014530956034935478,0.009500695956315358,0.008137335379563869
5.75,-90.0,316.23,5.0,760.0,MEAN,0.00017039457918861182,0.001051327415580244,0.0030020445310070206,0.006460921925428154,0.009512932550871094,0.010747808884787362,0.009054060255031025,0.005707351644037465,0.005134271132343869
5.75,-90.0,398.11,5.0,760.0,MEAN,0.00013307296579361964,0.0008494236054106142,0.0023973528167111095,0.004906874416849791,0.00679742827571087,0.007270576598532629,0.005643109522619855,0.003428285908031795,0.0032396384086308782
5.75,-90.0,501.19,5.0,760.0,MEAN,0.00010390908210245089,0.0006865749261980391,0.0019140073317595713,0.0037260430422213497,0.004856908322413873,0.004918091295192549,0.0035170012185608743,0.0020598267502154152,0.002043511290807768
5.75,-90.0,630.96,5.0,760.0,MEAN,7.605043516389388e-05,0.0005380022739671549,0.0015540475085783628,0.0030927992739620564,0.004058470527652154,0.004102318324810205,0.002888856031366471,0.0016580585623021114,0.0016478614001723322
5.75,-90.0,794.33,5.0,760.0,MEAN,5.5503153472388634e-05,0.0004209388527172888,0.0012634283878796533,0.0025758031539822464,0.003412990164837126,0.003451739380930287,0.0024004119653500433,0.001350104265982777,0.0013419465362789536
6.0,-90.0,1.0,5.0,760.0,MEAN,0.014112872387614528,0.08902122539297314,0.235758388440497,0.6087705791478232,0.9828024860681273,1.4072083739095411,1.834469467147293,1.7396358593403456,0.9088730606272274
6.0,-90.0,1.26,5.0,760.0,MEAN,0.01406188657696563,0.08878669066398821,0.23565641681919922,0.6092804372543121,0.9822926279616383,1.405168941483585,1.8252920212304917,1.7314781296365223,0.9021429336215732
6.0,-90.0,1.58,5.0,760.0,MEAN,0.014010900766316736,0.08853176161074372,0.23545247357660365,0.6096883237395033,0.9814768549912559,1.4021097928446513,1.8171342915266682,1.7233203999326987,0.895310834994621
