rup_mag,rup_rake,dist_repi,damping,site_vs30,result_type,5.000,2.000,1.000,0.500,0.300,0.200,0.100,0.050,pga
4.5,-90.0,1.0,5.0,760.0,MEAN,0.00027766872479388985,0.004400075458999761,0.022719277225148243,0.10034007535702814,0.21250885878460027,0.41635012975888813,0.7897702069514054,0.7185940152855461,0.4031957906114728
4.5,-90.0,1.26,5.0,760.0,MEAN,0.0002711425410308312,0.004238960297349248,0.021923898579025457,0.09711777212401788,0.20690041961322164,0.4029918473688772,0.753570281390689,0.6796408559497892,0.3875941325529106
4.5,-90.0,1.58,5.0,760.0,MEAN,0.00026471832888907016,0.0040829437167636245,0.021138717095032452,0.09398724335017565,0.20129198044184304,0.39004145146405755,0.7188999301494394,0.6426251574186904,0.3725023326008372
4.5,-90.0,2.0,5.0,760.0,MEAN,0.00025839608836860707,0.003931006001029914,0.020384127097428786,0.09093829187337166,0.19578551289176224,0.3773969704231313,0.6856571816063589,0.6075469196922496,0.35802236237655066
4.5,-90.0,2.51,5.0,760.0,MEAN,0.0002448338627360006,0.0036342685830533365,0.01891573575074057,0.08512590945939745,0.1849765210341962,0.35353561103944775,0.626615612874937,0.5479954928543387,0.3295722800344664
4.5,-90.0,3.16,5.0,760.0,MEAN,0.00022780460197926916,0.003276348192298084,0.017151626702288755,0.0780592761034604,0.17161823864418535,0.3245756705908746,0.5575808252563311,0.48008239307000866,0.29551375852100364
4.5,-90.0,3.98,5.0,760.0,MEAN,0.0002117950574355157,0.00295309815278408,0.015540475085783627,0.07155348666466123,0.15917770084585459,0.2979610774321506,0.4959899659924643,0.42042899461079986,0.264820300510368
4.5,-90.0,5.01,5.0,760.0,MEAN,0.0001935421372232108,0.0026237298159922096,0.013868140496499825,0.06459902209215176,0.145207588728057,0.26920508022617307,0.4349089648350864,0.36373277316922703,0.23351501277194558
4.5,-90.0,6.31,5.0,760.0,MEAN,0.00016743740217097585,0.002232158790208685,0.011828708070543969,0.05562551941794598,0.12603692392407193,0.23147558034598972,0.36475248938220495,0.30295768687574254,0.19568354127046445
4.5,-90.0,7.94,5.0,760.0,MEAN,0.0001447997022428658,0.0018976918723519246,0.010071737035582999,0.04786547903718395,0.10921160640993612,0.1989466331519938,0.3056089490294851,0.25207384784814385,0.16386839542555307
4.5,-90.0,10.0,5.0,760.0,MEAN,0.000125017207711094,0.0016111516165051268,0.008570714770079486,0.04115574635578918,0.09460927024009219,0.170802465673803,0.2558467978361622,0.20965365338826206,0.13715183064553135
4.5,-90.0,12.59,5.0,760.0,MEAN,0.00010086013062564689,0.001293000158056013,0.006805586005414694,0.0326309188152937,0.07469421260063325,0.13429662524919314,0.19843677504550483,0.1636644521829575,0.10594851452840676
4.5,-90.0,15.85,5.0,760.0,MEAN,8.033324325840119e-05,0.0010268542264687736,0.005336174942513499,0.025492905324448208,0.05801165535631434,0.1039090821024509,0.15183574411241352,0.12634283878796532,0.08063915812229457
4.5,-90.0,19.95,5.0,760.0,MEAN,6.385462925667787e-05,0.0008143453676841735,0.004175737892144616,0.019884466153069602,0.04496948499232664,0.08029245460988206,0.11594173341559044,0.09734210969087302,0.06128494439997349
4.5,-90.0,25.12,5.0,760.0,MEAN,4.927268741109349e-05,0.0006239643507211943,0.003152962530527754,0.01490825103373731,0.033497677596324944,0.05943925805448344,0.08493216337893165,0.07144131788123366,0.04454120418287591
4.5,-90.0,31.62,5.0,760.0,MEAN,3.6781163802113873e-05,0.0004605038417808324,0.002289262898135449,0.010696823074138467,0.02389195087007286,0.04199191365043109,0.05943925805448344,0.049721362544803784,0.03083621828045255
4.5,-90.0,39.81,5.0,760.0,MEAN,2.7358985994197816e-05,0.00033854578270867223,0.0016560191298761557,0.007646851881121484,0.016978274946082506,0.02955137585210036,0.041431069733293226,0.034476605160783755,0.021261083040589806
4.5,-90.0,50.12,5.0,760.0,MEAN,2.0343338448909667e-05,0.00024850484110272114,0.0011981665502490658,0.005470777482626586,0.01208363712378845,0.020822605069009296,0.028878363151534928,0.023810373573034626,0.01464312481836305
4.5,-90.0,63.1,5.0,760.0,MEAN,1.5724024004119653e-05,0.00018721989670274764,0.0009056099687456981,0.0040931408788934046,0.009085671457633341,0.01536712332957738,0.020893985203917748,0.01651940265024244,0.01039090821024509
4.5,-90.0,79.43,5.0,760.0,MEAN,1.2063242799528892e-05,0.00013990506442057175,0.000679232969464598,0.003038754314674226,0.006777033951451311,0.011257666991276328,0.015010222655035104,0.0113698357747039,0.007315444111903658
4.5,-90.0,100.0,5.0,760.0,MEAN,9.165209322245619e-06,0.0001036031672385575,0.000504555582181479,0.0022341982226346405,0.005006806605721628,0.008161808568675337,0.01066623158774913,0.007749843218632255,0.005100620497315597
4.5,-90.0,125.89,5.0,760.0,MEAN,7.488795868109905e-06,8.21483381175019e-05,0.00040268593250498383,0.0017549316025350147,0.003910611676770355,0.006205992872183672,0.0077365869078635414,0.005392259334227285,0.0036985107044709455
4.5,-90.0,158.49,5.0,760.0,MEAN,6.1794802506462455e-06,6.570031560216792e-05,0.00032447369896957675,0.0013878337658629603,0.003064247219998674,0.004719246633661852,0.005548275914812908,0.003711767015239659,0.002674715626641106
4.5,-90.0,199.53,5.0,760.0,MEAN,5.099600781102619e-06,5.2545976454752646e-05,0.00026145523700754083,0.0010982343613772287,0.002401431681563021,0.0035894010696823075,0.003978932663039877,0.002555408829722688,0.001933381939806152
4.5,-90.0,251.19,5.0,760.0,MEAN,4.125771797708698e-06,4.1522844192461236e-05,0.0002061866182641371,0.0008425915067836622,0.0018018385483319992,0.0026012960593066953,0.0027032676806044878,0.0016753937379227362,0.0013327690903621521
4.5,-90.0,316.23,5.0,760.0,MEAN,3.211086354667496e-06,3.204968057389629e-05,0.00015611855220692083,0.0006091784656330144,0.0012440537798330724,0.0017182218188678093,0.0016529599812372218,0.0009980982292627962,0.0008369830676122835
4.5,-90.0,398.11,5.0,760.0,MEAN,2.498304721795924e-06,2.473831532684454e-05,0.0001180831374628441,0.000440517404006465,0.0008587030229487134,0.001134944145044434,0.0010107427103037225,0.0005946984954087279,0.0005255617361688242
4.5,-90.0,501.19,5.0,760.0,MEAN,1.9445988181489094e-06,1.90992846690766e-05,8.939852039177497e-05,0.00031845737331300704,0.0005928630062253676,0.0007493894449174795,0.0006180499966859223,0.00035435138400983005,0.00033008213814095537
4.5,-90.0,630.96,5.0,760.0,MEAN,1.2348763339162712e-06,1.3154339147415275e-05,6.497631709095359e-05,0.0002417747140970668,0.0004590762390826633,0.0005840934467937573,0.00047692127280977704,0.00026787944914930174,0.00024932061407310343
4.5,-90.0,794.33,5.0,760.0,MEAN,7.780434705021593e-07,9.014291322724887e-06,4.715167768809941e-05,0.00018385483319992047,0.0003572065894061683,0.00045846440935487655,0.00037158458800915704,0.00020445310070207464,0.00018987115885649026
4.75,-90.0,1.0,5.0,760.0,MEAN,0.000567472072522217,0.007507150759943508,0.033538466244844065,0.13409268200659757,0.27348788832068033,0.5052693835305635,0.9130538971004369,0.8501374067596988,0.4698852309402294
4.75,-90.0,1.26,5.0,760.0,MEAN,0.0005553374495877797,0.007276694895810496,0.03256973584251503,0.1307276185037704,0.267777477528004,0.491707157897957,0.8756303120841471,0.8113881906665376,0.4541816012603692
4.75,-90.0,1.58,5.0,760.0,MEAN,0.0005433047982746403,0.007051337612742374,0.03162139976444556,0.12736255500094326,0.2620670667353276,0.47845084712924396,0.8396343297660261,0.7743724921354387,0.4388858580657003
4.75,-90.0,2.0,5.0,760.0,MEAN,0.0005314760902040962,0.0068320986269521196,0.03070365517276542,0.12409946311941387,0.25635665594265117,0.46539847960312647,0.8049639785247765,0.7388863679238069,0.42409997297752033
4.75,-90.0,2.51,5.0,760.0,MEAN,0.0005038417808323944,0.0063650686014082285,0.028755997205977577,0.11706342124986617,0.24371217490172487,0.438579943201807,0.7389883395451047,0.6739304451571128,0.39310060010299136
4.75,-90.0,3.16,5.0,760.0,MEAN,0.00046855959986335805,0.005789948657288677,0.026339269781219886,0.10839583343955378,0.22760065873667357,0.40523522303742865,0.6605721627671018,0.5979615872902572,0.3550651853589146
4.75,-90.0,3.98,5.0,760.0,MEAN,0.00043552079456287313,0.005263775091392066,0.024126485599057782,0.10024830089786013,0.21240688716330247,0.3742358501628997,0.5902117440716248,0.5302524307485227,0.3207007489815584
4.75,-90.0,5.01,5.0,760.0,MEAN,0.00039850509603177434,0.0047202663498748295,0.02177094114707877,0.09133598119643303,0.19496973992137986,0.3401773286494369,0.5201572402400413,0.4640728485262552,0.2848067382847354
4.75,-90.0,6.31,5.0,760.0,MEAN,0.0003474173137615802,0.004055411379013221,0.018762778318793878,0.07935431569394237,0.16998669270342062,0.2941881274441323,0.4391917729295937,0.389837508221462,0.2403471113988977
4.75,-90.0,7.94,5.0,760.0,MEAN,0.0003026517720118491,0.003481311151106647,0.016162501975700162,0.06889202734878884,0.1480627941243952,0.25431722351669533,0.37056487179617914,0.32722693274461717,0.20261761151871432
4.75,-90.0,10.0,5.0,760.0,MEAN,0.00026339269781219885,0.002985729071599374,0.013908929145018942,0.0597553700805066,0.12889212932041014,0.21954490065414797,0.31233907603513944,0.27440563291236053,0.1707004940525052
4.75,-90.0,12.59,5.0,760.0,MEAN,0.00021577195066612963,0.002419786573396624,0.011155695369978534,0.04772271876736704,0.102379507782984,0.17416752917663017,0.24564963570638293,0.2159758939087252,0.13337888065751302
4.75,-90.0,15.85,5.0,760.0,MEAN,0.0001748813305257147,0.0019405199532969975,0.00883482126924077,0.03756634528610688,0.07997634258385893,0.13603014281125564,0.19078890344817037,0.16804923189876259,0.10288936588947296
4.75,-90.0,19.95,5.0,760.0,MEAN,0.00014133266711874087,0.0015530277923653847,0.006983016626472853,0.029510587203581247,0.06237604074785987,0.10605048614970454,0.1478588508817996,0.1305236752611748,0.0792421469105148
4.75,-90.0,25.12,5.0,760.0,MEAN,0.00011104709559329639,0.0012012256988879995,0.005323938347957764,0.022280799253567733,0.046835565662076244,0.07937471001820194,0.11012935100161625,0.09679146293586495,0.0585724992734522
4.75,-90.0,31.62,5.0,760.0,MEAN,8.438151662392356e-05,0.0008955147782372166,0.0039024539470665313,0.016121713327181045,0.03372201516318009,0.05678799590074082,0.0784161767780027,0.06831078910739141,0.04141067540903367
4.75,-90.0,39.81,5.0,760.0,MEAN,6.389541790519698e-05,0.0006648549708616093,0.0028490870990603317,0.011624764827948383,0.02418766857183646,0.04047253649309397,0.055645913742205545,0.04802863363126042,0.02916388369116875
4.75,-90.0,50.12,5.0,760.0,MEAN,4.8314154170894243e-05,0.0004926249024896372,0.0020812407906879516,0.008384106703104527,0.017386161431273677,0.02885796882727537,0.03943242595585649,0.03362004354188229,0.02049629588085636
4.75,-90.0,63.1,5.0,760.0,MEAN,3.742358501628997e-05,0.00037280824746473054,0.0015866784273936565,0.006328358817741023,0.013195127795934392,0.02146502628318539,0.02871520855745846,0.02347386722275191,0.014694110629011947
4.75,-90.0,79.43,5.0,760.0,MEAN,2.8766194368107355e-05,0.0002799121004624413,0.0011991862664620435,0.00473964095792141,0.00993713449546991,0.015846389949677006,0.020741027771971062,0.016264473596997956,0.010452091183023765
4.75,-90.0,100.0,5.0,760.0,MEAN,2.189330709263612e-05,0.00020812407906879517,0.000898268012012257,0.003515981502347897,0.007411297435923583,0.011583976179429264,0.014836870898828857,0.011155695369978534,0.007359291909061708
4.75,-90.0,125.89,5.0,760.0,MEAN,1.768187913303728e-05,0.00016529599812372216,0.0007232847098652445,0.002786884410068678,0.0058297175895948156,0.008847057863796507,0.010758006046917144,0.007732508043011631,0.005330056645235631
4.75,-90.0,158.49,5.0,760.0,MEAN,1.434740711659945e-05,0.00013225719282323732,0.000588172311645669,0.0022250207767178396,0.004595860971891522,0.00674848189748793,0.00768866024585358,0.005281110267012691,0.0038320935283710543
4.75,-90.0,199.53,5.0,760.0,MEAN,1.1634961990078162e-05,0.00010584654290710896,0.00047834887550794616,0.001776345643007551,0.003623051704710579,0.005147527443112582,0.005497290104164012,0.00360775596151591,0.002755273207466362
4.75,-90.0,251.19,5.0,760.0,MEAN,9.288594984015949e-06,8.389205284169416e-05,0.000380965977168554,0.0013755971713072252,0.0027379380318457375,0.003747457082693886,0.0037321613394992177,0.0023535050195530585,0.001892593291287035
4.75,-90.0,316.23,5.0,760.0,MEAN,7.179821855577593e-06,6.518026033354917e-05,0.0002914348936690919,0.0010046244130258548,0.00190482988584277,0.0024921864245180565,0.002292322046774383,0.0014041492252706072,0.0011900088205452424
4.75,-90.0,398.11,5.0,760.0,MEAN,5.550315347238863e-06,5.063910713648392e-05,0.0002229099641569751,0.0007335838436163217,0.0013256310768713067,0.0016570388460891334,0.001408228090122519,0.0008379008122039636,0.0007487776151896926
4.75,-90.0,501.19,5.0,760.0,MEAN,4.289946107998144e-06,3.934065149668848e-05,0.0001704965508099096,0.0005357588982986035,0.0009221293713959405,0.0011012935100161627,0.0008648213202265809,0.0004999668592230782,0.00047100691877450504
4.75,-90.0,630.96,5.0,760.0,MEAN,2.8021801532633467e-06,2.7807661127908102e-05,0.00012685269689445428,0.00041431069733293227,0.0007256300571550938,0.0008708376458831507,0.0006755619910978775,0.0003824955514880209,0.00036036770966639986
4.75,-90.0,794.33,5.0,760.0,MEAN,1.817134291526668e-06,1.957855128917622e-05,9.426256672767969e-05,0.0003212106070880474,0.000573896284663978,0.0006933050532036934,0.0005329036929022652,0.0002957177017635992,0.00027797463965778324
5.0,-90.0,1.0,5.0,760.0,MEAN,0.0011604370503688823,0.012807635635002779,0.04948682781581886,0.1792661102415198,0.35190406509868305,0.6130533872423305,1.0554062804321558,1.0057461008601307,0.5475876063691475
5.0,-90.0,1.26,5.0,760.0,MEAN,0.0011369835774703901,0.012491523608979621,0.0483855343058027,0.17590104673869264,0.34649956916990005,0.5998990480949151,1.0174728373093769,0.9688323739503297,0.5321898915531807
5.0,-90.0,1.58,5.0,760.0,MEAN,0.0011155695369978536,0.012175411582956463,0.047314832282175874,0.17253598323586544,0.341095073241117,0.5868466805687977,0.9806610820208737,0.9331423064961022,0.5172000632224052
5.0,-90.0,2.0,5.0,760.0,MEAN,0.0010931357803123391,0.011869496719063085,0.04624413025854905,0.1692728913543361,0.335690577312334,0.5741002279065737,0.9450729861879439,0.8985739268761505,0.5024141781342253
5.0,-90.0,2.51,5.0,760.0,MEAN,0.001037051388598553,0.011145498207848756,0.04371523405036378,0.16101319002921488,0.3211086354667496,0.5441205712450226,0.8716534188535331,0.8289273095297579,0.4688655147272514
5.0,-90.0,3.16,5.0,760.0,MEAN,0.0009638357645067379,0.01022775361616862,0.04047253649309397,0.1504081414142444,0.30173402742016897,0.5057792416370525,0.78263219346056,0.7448007219590788,0.426751235131263
5.0,-90.0,3.98,5.0,760.0,MEAN,0.0008956167498585144,0.009383428591822895,0.0374541765026793,0.14041492252706073,0.28348110720786407,0.4699872025615271,0.702380527499197,0.6689338357135209,0.38820596228069726
5.0,-90.0,5.01,5.0,760.0,MEAN,0.0008208715514472323,0.00849117690546721,0.0341604931347606,0.1290960725630057,0.2617611518714342,0.42981038377019676,0.6221288615378341,0.5922511764975807,0.34731534214028237
5.0,-90.0,6.31,5.0,760.0,MEAN,0.0007210413341966931,0.007367449638765532,0.029775713418955504,0.11318849964055004,0.22933417629873606,0.3739299352990063,0.5288248280503536,0.5018023484064386,0.2951058720358124
5.0,-90.0,7.94,5.0,760.0,MEAN,0.0006328358817741023,0.006387502358093743,0.025941580458158496,0.09914700738784397,0.20078212233535409,0.32508552869736357,0.4491849918167774,0.4247118027053071,0.250544273528677
5.0,-90.0,10.0,5.0,760.0,MEAN,0.0005548275914812908,0.005532980171618239,0.022576516955331333,0.08675745540016214,0.17549316025350145,0.2823594193735883,0.3811699204111496,0.3592460218321241,0.21240688716330247
5.0,-90.0,12.59,5.0,760.0,MEAN,0.0004617275012364059,0.004526520269409024,0.018293708860824036,0.06980977194046896,0.14021097928446513,0.22586714117461112,0.30397740308872045,0.28501068152733094,0.16815120352006038
5.0,-90.0,15.85,5.0,760.0,MEAN,0.0003805580906833628,0.003664860069442674,0.014632927656233271,0.055339998878312174,0.11023132262291405,0.17804245078594627,0.23963331004981314,0.22352179388476187,0.1313394482315572
5.0,-90.0,19.95,5.0,760.0,MEAN,0.0003129509057629262,0.002961255882487904,0.011675750638597278,0.04378661418527224,0.08652292067117721,0.14010900766316736,0.18854552777961894,0.1748813305257147,0.10248147940428179
5.0,-90.0,25.12,5.0,760.0,MEAN,0.000250034415422188,0.0023137360872469196,0.008988798417400438,0.0333243258401187,0.065465780873183,0.10605048614970454,0.14276026981690995,0.13113550498896157,0.07701916556622293
5.0,-90.0,31.62,5.0,760.0,MEAN,0.0001935421372232108,0.0017416752917663015,0.0066516088572550255,0.02431003451739381,0.047600352821809695,0.07680502516149755,0.10350119561725972,0.0938648774046183,0.05561532225581621
5.0,-90.0,39.81,5.0,760.0,MEAN,0.0001492864535799687,0.0013052367526117483,0.004903815268210857,0.017661484808777717,0.03446640799865397,0.05543177333748018,0.07472480408702259,0.06692397505774143,0.04000346703512413
5.0,-90.0,50.12,5.0,760.0,MEAN,0.00011471807396001694,0.0009766841887902597,0.0036159136912197335,0.012848424283521896,0.02501363870434858,0.04000346703512413,0.05384101604523461,0.047457592551992785,0.028684617071069122
5.0,-90.0,63.1,5.0,760.0,MEAN,8.905181687936248e-05,0.000742251431426634,0.002777706964151877,0.009784177063523223,0.01916046764185527,0.02998985382368087,0.03944262311798626,0.033354917326508034,0.0207716192583604
5.0,-90.0,79.43,5.0,760.0,MEAN,6.858611248489546e-05,0.0005597222293035849,0.002117950574355157,0.0073939622603029585,0.014571744683454594,0.022311390739957068,0.028674419908939344,0.023259726818026544,0.01492864535799687
5.0,-90.0,100.0,5.0,760.0,MEAN,5.2321638887897504e-05,0.00041808364732095056,0.0015989150219493915,0.005532980171618239,0.010972146451642508,0.016437825353204205,0.02063905615067327,0.016060530354402372,0.010615245777100234
5.0,-90.0,125.89,5.0,760.0,MEAN,4.175737892144616e-05,0.000332733400294698,0.0012991184553338806,0.004425568364324208,0.008691041283210882,0.012613889554536972,0.01494903968225643,0.011084315235070079,0.007681522232362734
5.0,-90.0,158.49,5.0,760.0,MEAN,3.330393151585914e-05,0.0002664518464511326,0.001066623158774913,0.003565947596783815,0.006894301315943773,0.009649574523410134,0.01065603442561935,0.007514288773434353,0.005490152090673166
5.0,-90.0,199.53,5.0,760.0,MEAN,2.6563607348075034e-05,0.0002133246317549826,0.0008752224255989558,0.002873560288171802,0.00546873805020063,0.007382745381960201,0.00759484635425961,0.005093482483824752,0.003923867987539068
5.0,-90.0,251.19,5.0,760.0,MEAN,2.0914379528177308e-05,0.00016947683459693166,0.0007038081301973661,0.002246434817190376,0.004159422432736969,0.005398377631505152,0.005154665456603427,0.0033069396786874214,0.0026869522211968406
5.0,-90.0,316.23,5.0,760.0,MEAN,1.606053035440237e-05,0.00013256310768713068,0.0005440185996237248,0.0016570388460891334,0.0029174080853298532,0.003613874258793778,0.00317947515206518,0.001976210020751225,0.0016927289135433609
5.0,-90.0,398.11,5.0,760.0,MEAN,1.2328369014903152e-05,0.0001036031672385575,0.0004205309662320976,0.001221620023147558,0.002045550723233724,0.002419786573396624,0.001961933993769534,0.001180831374628441,0.001066623158774913
5.0,-90.0,501.19,5.0,760.0,MEAN,9.463986172648152e-06,8.104704460748574e-05,0.0003250855286973635,0.0009011232174085952,0.001434740711659945,0.0016193093462089502,0.0012104031448048008,0.000705337704516833,0.0006721969275950504
5.0,-90.0,630.96,5.0,760.0,MEAN,6.355891155491427e-06,5.878663967817756e-05,0.000247587096511041,0.0007102323423391271,0.0011471807396001693,0.0012980987391209026,0.0009567997226371901,0.000546363946913574,0.0005208710415891258
5.0,-90.0,794.33,5.0,760.0,MEAN,4.244058878414137e-06,4.2501771756920054e-05,0.00018844355615832114,0.0005613537752443495,0.0009221293713959405,0.0010482682669413104,0.0007642773016269573,0.0004277709513442409,0.00040717268384208677
5.25,-90.0,1.0,5.0,760.0,MEAN,0.002251533398255266,0.02133246317549826,0.0741231715213656,0.24626146543416969,0.4608097566447258,0.7593826638046632,1.2165214420826684,1.1624764827948382,0.628043215573106
