rup_mag,dist_rrup,damping,site_backarc,rup_hypo_depth,site_vs30,result_type,5.000,2.000,1.000,0.500,0.303,0.200,0.100,pga
7.0,10.0,5.0,1.0,20.0,760.0,MEAN,0.02613841954047406,0.13034048252106728,0.29687889469072065,0.618414016519542,0.9246541526249076,1.1751121710262797,1.2968188793197148,0.6000387869719788
7.0,12.6,5.0,1.0,20.0,760.0,MEAN,0.02469899740048969,0.12178094069226238,0.2751562135312568,0.5668645840020841,0.8367184094489838,1.0473198248395548,1.1276629830906737,0.525871124494752
7.0,15.9,5.0,1.0,20.0,760.0,MEAN,0.023253017819545092,0.11318251092624125,0.25373438469606857,0.516272894766329,0.7524529070876402,0.9278533165069129,0.9740456797265079,0.4579091528253958
7.0,20.0,5.0,1.0,20.0,760.0,MEAN,0.02178609155603974,0.10461147471629997,0.2324231187442958,0.4670671511584758,0.6718608335507777,0.8156039575257896,0.8349862510648506,0.39598553737000397
7.0,25.1,5.0,1.0,20.0,760.0,MEAN,0.01994707976858201,0.09429297200758899,0.20605318146280915,0.4076423761428726,0.5762080540605731,0.6851400017093526,0.6777652909720172,0.3253713613671765
7.0,31.6,5.0,1.0,20.0,760.0,MEAN,0.018116709663377566,0.08411613792022046,0.18079204798919052,0.35138184950450463,0.4876175459161981,0.5673869260889269,0.5419750878298377,0.263620588025696
7.0,39.8,5.0,1.0,20.0,760.0,MEAN,0.016243489215253194,0.07382089808877688,0.15594782585478,0.29694726145316674,0.4033474581590677,0.4585422149020377,0.4217735338496447,0.20867927750298768
7.0,50.1,5.0,1.0,20.0,760.0,MEAN,0.01443043172675103,0.06389683170831377,0.13264146942529173,0.2457419637375246,0.3261214198188584,0.36289361285331184,0.3209809990263054,0.16247229847505404
7.0,63.1,5.0,1.0,20.0,760.0,MEAN,0.012626393630434383,0.05449784437849761,0.11042802996416153,0.19910369711355522,0.25785723678372974,0.2799492603716267,0.2392650828227919,0.12410215541536135
7.0,79.4,5.0,1.0,20.0,760.0,MEAN,0.01095416616291426,0.04590704351459785,0.09054809637600673,0.15840880742930405,0.19974656722795134,0.21187480918603874,0.17501663294709136,0.09353611430914527
7.0,100.0,5.0,1.0,20.0,760.0,MEAN,0.00944450768708991,0.03826302701766147,0.07327896461895325,0.12398790572813609,0.15201250802938898,0.15768098507132397,0.1259445341696566,0.069659335040946
7.0,125.9,5.0,1.0,20.0,760.0,MEAN,0.008045986960757935,0.03136023615417279,0.057860119253558405,0.0940544448601965,0.11170672628614223,0.11320857516312684,0.08850734728907193,0.051177530339437144
7.0,158.5,5.0,1.0,20.0,760.0,MEAN,0.006816780726971901,0.025467090078203497,0.045110674879687285,0.07028769872809214,0.08075684142814095,0.07999803590627712,0.061359148539513936,0.03731464587553833
7.0,199.5,5.0,1.0,20.0,760.0,MEAN,0.0057408913073704404,0.02039761190483028,0.03442542609917001,0.051083344619559004,0.05654306214351921,0.05487560538886652,0.04161781970366763,0.026969899270947385
7.0,251.2,5.0,1.0,20.0,760.0,MEAN,0.004788277641583604,0.016035382521828623,0.025414368597356105,0.03536546106523215,0.03751278642211283,0.03585744363586611,0.02735768372142031,0.019243289982992098
7.0,316.2,5.0,1.0,20.0,760.0,MEAN,0.003787732709922574,0.011851663833095001,0.017493605336463998,0.02269234221723541,0.022992136251180004,0.021695982626788502,0.016787240967387405,0.01297117517282345
7.0,398.1,5.0,1.0,20.0,760.0,MEAN,0.0027238257701088704,0.007812307413987478,0.010553082284226687,0.01249048564017273,0.011991660496355526,0.011227403330696734,0.009067327964778476,0.007924636025489639
7.0,501.2,5.0,1.0,20.0,760.0,MEAN,0.0018948695830169606,0.00494628714188812,0.006067074452121572,0.006552082005958217,0.0059673199551129276,0.005544716228578028,0.004669596173532696,0.004653495780123362
7.0,631.0,5.0,1.0,20.0,760.0,MEAN,0.001243309707157939,0.0028706439152343566,0.003091571709080541,0.002952428061325536,0.0025094544925663557,0.002345737033836244,0.0021457510040924143,0.0025572861375017606
7.0,794.3,5.0,1.0,20.0,760.0,MEAN,0.0007625693127067498,0.0015201250802938898,0.001399842982270754,0.0011541953609595695,0.0009058980491839932,0.0008542388609515569,0.0008791830860413101,0.0013055073595624432
7.25,10.0,5.0,1.0,20.0,760.0,MEAN,0.03361857681847426,0.15523131068004065,0.33249056383060477,0.6743406254753321,0.9812492197563891,1.2055336141918633,1.302204897674283,0.5967319955112929
7.25,12.6,5.0,1.0,20.0,760.0,MEAN,0.03204640555010352,0.1464128938085594,0.31130014603994943,0.624855108035256,0.9000762959025339,1.0923940460839816,1.156323426804937,0.5329412355258285
7.25,15.9,5.0,1.0,20.0,760.0,MEAN,0.03042841455471767,0.13739765621740407,0.2899875310603501,0.5758101610810383,0.8206903454171426,0.9835112328216815,1.0208908807168293,0.47312873405508066
7.25,20.0,5.0,1.0,20.0,760.0,MEAN,0.02875936710091149,0.1282269535843187,0.26839803035125154,0.5269620311726825,0.7431548636534585,0.8791830860413101,0.8949099245273557,0.41723364740155444
7.25,25.1,5.0,1.0,20.0,760.0,MEAN,0.026526461703569846,0.11635346589505367,0.24042483375681345,0.4647071177095614,0.6447321459720573,0.7486508541600151,0.7390593648116285,0.3484811766059761
7.25,31.6,5.0,1.0,20.0,760.0,MEAN,0.024242607183286646,0.10451516834493593,0.2129508237715823,0.4044634895166629,0.5514159503455114,0.6280284593774016,0.6008683440974536,0.2869322239207564
7.25,39.8,5.0,1.0,20.0,760.0,MEAN,0.021851402886001424,0.09231649866656656,0.18508845252636913,0.34425426099170003,0.45970510270220727,0.5128369686390819,0.4736737573205419,0.2297096946026855
7.25,50.1,5.0,1.0,20.0,760.0,MEAN,0.019457154364927818,0.08025633521081088,0.15760838701179322,0.2865360861091711,0.37504149778200124,0.40867617920536686,0.36440080224633586,0.1802516813517589
7.25,63.1,5.0,1.0,20.0,760.0,MEAN,0.01711903675692067,0.06868775537242003,0.13191048721555526,0.2332809764198144,0.29783746337507194,0.31745291872831416,0.27338792228647224,0.13841377849706124
7.25,79.4,5.0,1.0,20.0,760.0,MEAN,0.01491349127334806,0.058060306537851714,0.1085373776387888,0.1863285157214516,0.23167508147382304,0.2415345843671528,0.20117746177601076,0.104949246398559
7.25,100.0,5.0,1.0,20.0,760.0,MEAN,0.012878916409476587,0.04853771468006402,0.08799932166101271,0.1462444267312601,0.17692097514253805,0.18033470943510777,0.14550547144839102,0.07870083214808445
7.25,125.9,5.0,1.0,20.0,760.0,MEAN,0.010974363079020728,0.039845503990716666,0.06970747062841079,0.11129594065748814,0.1304005203546416,0.12998083555804615,0.10265481494271383,0.058033574934237595
7.25,158.5,5.0,1.0,20.0,760.0,MEAN,0.009312779590021228,0.03241748543736509,0.05449784437849761,0.083383347142344,0.09453210407269835,0.09221027652784418,0.07142978195731288,0.04244038592369491
7.25,199.5,5.0,1.0,20.0,760.0,MEAN,0.007875521553815256,0.026030309052135513,0.041694553213145934,0.06064281104324731,0.06629477857811696,0.06344235918777129,0.048604818353928644,0.030702894791320184
7.25,251.2,5.0,1.0,20.0,760.0,MEAN,0.006579294467549803,0.020463472133890666,0.03084461291461655,0.04205129012677426,0.044043246538934606,0.04151254165798451,0.03200216237382192,0.021957319656671595
7.25,316.2,5.0,1.0,20.0,760.0,MEAN,0.005211698990352372,0.015127923665548272,0.021265682447045305,0.027025847661812277,0.027050750853976277,0.02515818604570982,0.019664337726332907,0.014834719004101408
7.25,398.1,5.0,1.0,20.0,760.0,MEAN,0.003758195121193062,0.009999523938572005,0.01283155602259982,0.014916925626996513,0.014144230475920104,0.013049062896175505,0.0106458250397178,0.009084045993288437
7.25,501.2,5.0,1.0,20.0,760.0,MEAN,0.0026204707982871492,0.006345696901277802,0.00738208980887769,0.007842947798551082,0.007054712576863011,0.006460696269075114,0.0054938819646404595,0.005344158428862346
7.25,631.0,5.0,1.0,20.0,760.0,MEAN,0.0017182221939009061,0.003686203646682176,0.00377032965893651,0.0035398048863546435,0.0029653729690927223,0.002728219598594939,0.0025251043172479478,0.0029388628865841047
7.25,794.3,5.0,1.0,20.0,760.0,MEAN,0.0010562806509691704,0.0019551465882019677,0.001710721542867999,0.0013850942437908505,0.001073443830852027,0.0009971932369578207,0.0010386741527984753,0.0015048018775788822
7.5,10.0,5.0,1.0,20.0,760.0,MEAN,0.042892298965555235,0.18423804833395865,0.3741789262732087,0.7373595754412176,1.046114747163,1.2458889224810432,1.3124395958388773,0.5996244379896938
7.5,12.6,5.0,1.0,20.0,760.0,MEAN,0.04116037515029139,0.17517790347953557,0.3534103990593614,0.6902069441855739,0.9704637650094003,1.1446674265831522,1.186531642288405,0.5449784437849761
7.5,15.9,5.0,1.0,20.0,760.0,MEAN,0.03936219644275262,0.16572167890220962,0.3321079901920328,0.6426571214337737,0.8949099245273557,1.0451516834493595,1.0662997918332333,0.49246948391629247
7.5,20.0,5.0,1.0,20.0,760.0,MEAN,0.03746962308229007,0.15601965902152798,0.3100839762483906,0.5942638666582046,0.8197460344328853,0.9479366712537288,0.9516545413540726,0.44195629527940394
7.5,25.1,5.0,1.0,20.0,760.0,MEAN,0.03482405374606287,0.14278392772107187,0.28007821146017836,0.529394377393253,0.7197461068354873,0.8182373963673472,0.8009019008678192,0.37504149778200124
7.5,31.6,5.0,1.0,20.0,760.0,MEAN,0.032090709892834565,0.12929428368445628,0.2500802094570542,0.4654567410495998,0.6227006576953698,0.6954714789487423,0.6626425573302176,0.3135301602422474
7.5,39.8,5.0,1.0,20.0,760.0,MEAN,0.029119192296873014,0.1149421521289646,0.2190681922283346,0.3993735736374918,0.5244200944754751,0.5744858344602267,0.530248348348841,0.25484688198271876
7.5,50.1,5.0,1.0,20.0,760.0,MEAN,0.026012334160680998,0.10047993013502253,0.1878794691503864,0.33487237665306696,0.43050611478041273,0.46140184247989746,0.4123626523918152,0.20145559079120876
7.5,63.1,5.0,1.0,20.0,760.0,MEAN,0.02297625933044907,0.08629374646869922,0.15804447728227125,0.27376588268482555,0.34425426099170003,0.36097682805385595,0.31180230717830015,0.15612747081643888
7.5,79.4,5.0,1.0,20.0,760.0,MEAN,0.020071476645358518,0.07316094801855266,0.130610870637402,0.21947210265238948,0.26914066703366896,0.2759810892647827,0.23103582314173682,0.11909110486146014
7.5,100.0,5.0,1.0,20.0,760.0,MEAN,0.01736918034232765,0.061316777777317796,0.10614005893116055,0.17289376207708582,0.2062905455663526,0.2067660943871028,0.1681432062070975,0.08961471427216929
7.5,125.9,5.0,1.0,20.0,760.0,MEAN,0.014865493262799007,0.05048697201568994,0.08427122837215519,0.13197124822951634,0.15250332914342765,0.14975430792435793,0.11914596097212939,0.06637114721545169
7.5,158.5,5.0,1.0,20.0,760.0,MEAN,0.012658414846007974,0.04118881755269109,0.06603578188932506,0.09916977420794536,0.11088666563467071,0.10665453447030006,0.08322989072261519,0.04872808279601564
7.5,199.5,5.0,1.0,20.0,760.0,MEAN,0.010697426825434217,0.03311916085141584,0.050615009701025136,0.07225689985028214,0.0780331833821168,0.07360025591498617,0.05683021831754227,0.03536546106523215
7.5,251.2,5.0,1.0,20.0,760.0,MEAN,0.008953221406867074,0.026078302843751636,0.037504149778200144,0.050255005450092705,0.051973184105217146,0.04828134104767198,0.037573298644069913,0.02534424302848948
7.5,316.2,5.0,1.0,20.0,760.0,MEAN,0.007105249364075171,0.019300978387467714,0.02589878106971103,0.0323652767108261,0.031980063696705675,0.029321036895106952,0.02316217424560382,0.017150600250121415
7.5,398.1,5.0,1.0,20.0,760.0,MEAN,0.005129550673110849,0.012784369796822771,0.015655946350583982,0.017888722389905336,0.016725508271752863,0.015239801995242603,0.012542361801129562,0.01051911793976038
7.5,501.2,5.0,1.0,20.0,760.0,MEAN,0.0035816184983218603,0.008127918204384748,0.009021511860528629,0.009414111211087968,0.008344096621661622,0.007557520335283464,0.0064740988241417914,0.006198396080583299
7.5,631.0,5.0,1.0,20.0,760.0,MEAN,0.0023522275075791113,0.004726931670038705,0.004615080964128013,0.004256761563085161,0.0035243523789482254,0.003194326647398377,0.00298180558890481,0.003416483474794754
7.5,794.3,5.0,1.0,20.0,760.0,MEAN,0.0014487028831050176,0.002510032382346435,0.0020944949830070695,0.0016667840059526587,0.0012754966562221201,0.001171330156114585,0.0012279461574255855,0.001752585944637301
7.75,10.0,5.0,1.0,20.0,760.0,MEAN,0.052817680411254925,0.21690987517276367,0.4230379456128794,0.8094300517405203,1.1193845913474165,1.301605348219161,1.3300847815734576,0.6117575310182326
7.75,12.6,5.0,1.0,20.0,760.0,MEAN,0.05100107431592632,0.20772048331547666,0.4025124559964774,0.7645032296324128,1.0490092661139947,1.208312656183486,1.2214602110056487,0.5636108232112241
7.75,15.9,5.0,1.0,20.0,760.0,MEAN,0.049054553200935484,0.19805204195450726,0.38113543189322674,0.7180907367258003,0.977640815043397,1.1157819316858275,1.1155250429780752,0.5165107019735404
7.75,20.0,5.0,1.0,20.0,760.0,MEAN,0.04700881725233285,0.18783621328409852,0.3587396040173786,0.670315596513485,0.9050640703668578,1.023244277248438,1.012230279321716,0.4703047059818621
7.75,25.1,5.0,1.0,20.0,760.0,MEAN,0.04398244055813314,0.17289376207708582,0.3270237726750347,0.6025309005366579,0.8033028807856707,0.8951160088779623,0.8661225072575157,0.40604982197953277
7.75,31.6,5.0,1.0,20.0,760.0,MEAN,0.04080180016016671,0.15757210051734427,0.2945637665215985,0.5345389108497427,0.7027151625050897,0.771044288393824,0.7284157445774561,0.3451273083737151
7.75,39.8,5.0,1.0,20.0,760.0,MEAN,0.03728029363881906,0.14131209155681898,0.25964461776015585,0.4629982232514126,0.5974194042383244,0.6436937975669965,0.5911249964600764,0.2838437425193543
7.75,50.1,5.0,1.0,20.0,760.0,MEAN,0.03350266265962103,0.12395935974439587,0.22396457192084387,0.39109235310412765,0.4950844939324639,0.5229730682662936,0.46492117253009163,0.22739416921492012
7.75,63.1,5.0,1.0,20.0,760.0,MEAN,0.029708404221320883,0.10702354307050033,0.18905115039114365,0.32201738908110855,0.39790493401328275,0.4114142446093515,0.354959925389813,0.17741050185723847
7.75,79.4,5.0,1.0,20.0,760.0,MEAN,0.026042299213078088,0.09111278556950843,0.1568842422515751,0.2595848392600412,0.31280906088398563,0.3166498775522488,0.2654479186444081,0.13623206021140763
7.75,100.0,5.0,1.0,20.0,760.0,MEAN,0.022619308528398788,0.07662655915880388,0.12828601787769967,0.2052481845556844,0.24114559019025106,0.2389897772253513,0.19479568141655498,0.1031999113965056
7.75,125.9,5.0,1.0,20.0,760.0,MEAN,0.01941240415169376,0.06323817446873146,0.10211259765945543,0.1570288045417642,0.17888722389905337,0.17353190100942814,0.13854132102476266,0.07673249582411776
7.75,158.5,5.0,1.0,20.0,760.0,MEAN,0.01656453788188163,0.051710569933720224,0.08023785763409469,0.11827128746209632,0.1304305496411871,0.12393082033285475,0.09715816961180955,0.05654306214351921
7.75,199.5,5.0,1.0,20.0,760.0,MEAN,0.01403069953616565,0.04167535658233527,0.06162817745470468,0.08639315302785316,0.09197701784745507,0.08577867320210193,0.06664680345613176,0.04120779007239887
7.75,251.2,5.0,1.0,20.0,760.0,MEAN,0.01175924190185753,0.032876026695336194,0.04573822687878055,0.06016990480904959,0.06142983155049135,0.0564130167093117,0.0440838305548667,0.029544682309466767
7.75,316.2,5.0,1.0,20.0,760.0,MEAN,0.009345000402549774,0.024388176220514705,0.03163583665035551,0.038804252726742455,0.037894774270025175,0.03432253246004008,0.027206916542900604,0.020016093655521212
7.75,398.1,5.0,1.0,20.0,760.0,MEAN,0.006755839516069021,0.01615769196747824,0.019168111386819783,0.021497072662460547,0.019864577131750043,0.017888722389905336,0.014783570081752035,0.012304935014436887
7.75,501.2,5.0,1.0,20.0,760.0,MEAN,0.004724755338716168,0.010277306872530683,0.011065711018877811,0.011341730525367846,0.009932974588588953,0.00889568353474999,0.0076591279448311655,0.007267404348542809
7.75,631.0,5.0,1.0,20.0,760.0,MEAN,0.0031087036594445003,0.005985209056587272,0.005662123325698007,0.005134277340252836,0.0041973900088487425,0.0037685937576995517,0.003537360520117003,0.0040130939256094325
7.75,794.3,5.0,1.0,20.0,760.0,MEAN,0.0019168111386819785,0.0031825799646013485,0.0025761985082896777,0.002011774617760107,0.0015208252849794764,0.0013812723695071107,0.0014587448117553557,0.002059108941175751
8.0,10.0,5.0,1.0,20.0,760.0,MEAN,0.06335477084726687,0.2457985544307613,0.4634248568160472,0.8759500150463166,1.2038692579156902,1.3645181740492622,1.3582487825232488,0.6328187294326423
8.0,12.6,5.0,1.0,20.0,760.0,MEAN,0.0614722804344465,0.2365807065174787,0.4436896769975146,0.8332576785617433,1.137573127776409,1.2796150060729004,1.2626393630434383,0.5901729829749414
8.0,15.9,5.0,1.0,20.0,760.0,MEAN,0.059467451140975014,0.22692342217235412,0.4228431742906081,0.7886409508333599,1.0692501612485126,1.1933815642128918,1.1678291849998612,0.547620029643408
8.0,20.0,5.0,1.0,20.0,760.0,MEAN,0.05730325928835357,0.21646083251439904,0.4007553459559106,0.7417871818729994,0.99857186242863,1.1060616243836061,1.0736910288869694,0.5049859840909192
8.0,25.1,5.0,1.0,20.0,760.0,MEAN,0.05397334377055111,0.20113114428626017,0.36862036466821757,0.6734096327273282,0.8961471427216933,0.980120164904357,0.9332098721594789,0.4424654092813798
8.0,31.6,5.0,1.0,20.0,760.0,MEAN,0.05039405718036616,0.18479036548250666,0.33487237665306696,0.6032249893444487,0.7920987435916976,0.855026006456647,0.7975893097802057,0.3817502449756493
8.0,39.8,5.0,1.0,20.0,760.0,MEAN,0.04633181615835582,0.1662567644692698,0.297289331495542,0.5267194120585754,0.6799536734905619,0.7227353953196884,0.6574751221303107,0.3181847232845073
8.0,50.1,5.0,1.0,20.0,760.0,MEAN,0.04187736279716537,0.14664907379870545,0.2583326651186038,0.4483109270626452,0.5686948880358493,0.5927605938066397,0.524178645696977,0.2576791768216808
8.0,63.1,5.0,1.0,20.0,760.0,MEAN,0.03731464587553833,0.1274029031423583,0.21916910009220036,0.3714320065106467,0.4602346625411897,0.4700881725233285,0.4045566313997693,0.203319636422311
8.0,79.4,5.0,1.0,20.0,760.0,MEAN,0.03286089021111089,0.10896306838726386,0.18267508766051876,0.30114754315240255,0.36398151172810944,0.3640653312181178,0.30498559294599314,0.15739079332132092
8.0,100.0,5.0,1.0,20.0,760.0,MEAN,0.028666807124163432,0.09195584179451247,0.1497887940982768,0.2395958681964083,0.2818248758924164,0.2759810892647827,0.2252575335047002,0.1198337981112241
8.0,125.9,5.0,1.0,20.0,760.0,MEAN,0.024653542044691844,0.07608154519566449,0.11964080442552295,0.18381431258133324,0.209980673530402,0.20164122372131196,0.16113108237748724,0.08949099245273563
8.0,158.5,5.0,1.0,20.0,760.0,MEAN,0.02108042315711899,0.062370514187277216,0.09429297200758899,0.1388287215783116,0.153737326509611,0.14477025001659793,0.11352181457315663,0.06618801008824021
8.0,199.5,5.0,1.0,20.0,760.0,MEAN,0.017864025270694528,0.05040566217687339,0.07264058355661733,0.1017136699422963,0.1086874311969178,0.10054936319037149,0.07808710541742822,0.048336959005882064
8.0,251.2,5.0,1.0,20.0,760.0,MEAN,0.015034165418989828,0.039799656555929826,0.054010640115804864,0.07100342926513453,0.0727410095873946,0.06629477857811696,0.05188948070503966,0.03485614266009878
8.0,316.2,5.0,1.0,20.0,760.0,MEAN,0.011977862531277196,0.029558291271818245,0.03741789262732087,0.045885907406928016,0.04495513688763562,0.04045566313997692,0.032157281279037345,0.02371806879552258
8.0,398.1,5.0,1.0,20.0,760.0,MEAN,0.008673199266794418,0.019637189197642953,0.022702794833637456,0.02545536474987214,0.0236199690616821,0.021114428182250403,0.017513757192013885,0.014580731896023349
8.0,501.2,5.0,1.0,20.0,760.0,MEAN,0.006069869086598861,0.012527930182573949,0.013124395958388772,0.013439382803185036,0.011832576594595589,0.010511854099642856,0.009092416563041819,0.008611510281181777
8.0,631.0,5.0,1.0,20.0,760.0,MEAN,0.003999257099342284,0.007292548471285118,0.006729446184615178,0.006097886329319913,0.0050104799018940395,0.00446353890405761,0.004205129012677426,0.004765180154604376
8.0,794.3,5.0,1.0,20.0,760.0,MEAN,0.002466489803498487,0.003881318876488972,0.0030632280092837295,0.0023909986143091436,0.0018175205268344333,0.001639001399573546,0.0017357186280686583,0.00245063890822375
8.25,10.0,5.0,1.0,20.0,760.0,MEAN,0.07536666958159315,0.27763826669432606,0.5037085520226132,0.926572324859301,1.2430234574751482,1.3765098530649917,1.3399214033732592,0.6364720318263367
8.25,12.6,5.0,1.0,20.0,760.0,MEAN,0.0734817218713235,0.26870721294874805,0.48504197592307685,0.8869095359812031,1.1827128746209634,1.3025047759562627,1.2582858837009772,0.5993483643044262
